[Satellite]
VERSION=1.1
NAME=KAZEOSAT 2
NICKNAME=KAZEOSAT 2
TLE1=1 40010U 14033A   15055.41244475  .00000655  00000-0  89024-4 0  9996
TLE2=2 40010  97.9660 314.0728 0019103 140.2886 219.9707 14.82060570 36964
